NORAD_CAT_ID,OBJECT_NAME,OBJECT_TYPE,EPOCH,MEAN_MOTION,ECCENTRICITY,INCLINATION,RA_OF_ASC_NODE,ARG_OF_PERICENTER,MEAN_ANOMALY,BSTAR,MEAN_MOTION_DOT,MEAN_MOTION_DDOT,TLE_LINE0,TLE_LINE1,TLE_LINE2,SEMIMAJOR_AXIS,PERIOD,APOGEE,PERIGEE,DECAYED
52492.0,STARLINK-3916,PAYLOAD,2022-12-22 18:36:04,15.08843956,0.0002472,53.2143,274.5498,29.4003,330.7127,0.00046462,7.115e-05,0.0,0 STARLINK-3916,1 52492U 22049AT  22356.77505200  .00007115  00000-0  46462-3 0  9992,2 52492  53.2143 274.5498 0002472  29.4003 330.7127 15.08843956 35329,6917.868,95.437,541.443,538.023,0.0
52492.0,STARLINK-3916,PAYLOAD,2022-12-23 12:05:19,15.08846013,0.0002457,53.2141,271.278,29.4888,330.6243,0.00043696,6.674e-05,0.0,0 STARLINK-3916,1 52492U 22049AT  22357.50369431  .00006674  00000-0  43696-3 0  9993,2 52492  53.2141 271.2780 0002457  29.4888 330.6243 15.08846013 35436,6917.861999999999,95.437,541.427,538.0269999999998,0.0
52492.0,STARLINK-3916,PAYLOAD,2022-12-23 18:26:51,15.088447899999998,0.0002445,53.214,270.0889,29.9952,330.11800000000005,0.00035545,5.374e-05,0.0,0 STARLINK-3916,1 52492U 22049AT  22357.76865472  .00005374  00000-0  35545-3 0  9997,2 52492  53.2140 270.0889 0002445  29.9952 330.1180 15.08844790 35475,6917.866,95.437,541.422,538.039,0.0
52492.0,STARLINK-3916,PAYLOAD,2022-12-24 00:48:24,15.08850005,0.000247,53.2141,268.8994,30.8834,329.2303,0.00040356,6.142e-05,0.0,0 STARLINK-3916,1 52492U 22049AT  22358.03361310  .00006142  00000-0  40356-3 0  9990,2 52492  53.2141 268.8994 0002470  30.8834 329.2303 15.08850005 35670,6917.85,95.437,541.424,538.006,0.0
52492.0,STARLINK-3916,PAYLOAD,2022-12-24 03:59:10,15.08854404,0.0002588,53.2139,268.3051,30.8932,329.2212,0.00047405,7.267e-05,0.0,0 STARLINK-3916,1 52492U 22049AT  22358.16609101  .00007267  00000-0  47405-3 0  9998,2 52492  53.2139 268.3051 0002588  30.8932 329.2212 15.08854404 35536,6917.8359999999975,95.437,541.492,537.911,0.0
52492.0,STARLINK-3916,PAYLOAD,2022-12-24 16:42:15,15.08851152,0.0002634999999999,53.2136,265.926,32.1062,328.009,0.00025901,3.838e-05,0.0,0 STARLINK-3916,1 52492U 22049AT  22358.69600889  .00003838  00000-0  25901-3 0  9997,2 52492  53.2136 265.9260 0002635  32.1062 328.0090 15.08851152 35617,6917.846,95.437,541.534,537.888,0.0
52492.0,STARLINK-3916,PAYLOAD,2022-12-24 21:28:24,15.08847282,0.0002553,53.2133,265.0329,34.5631,325.5526,0.00015455,2.173e-05,0.0,0 STARLINK-3916,1 52492U 22049AT  22358.89472955  .00002173  00000-0  15455-3 0  9994,2 52492  53.2133 265.0329 0002553  34.5631 325.5526 15.08847282 35804,6917.858,95.437,541.489,537.957,0.0
52492.0,STARLINK-3916,PAYLOAD,2022-12-25 03:49:57,15.08840573,0.0002642,53.2131,263.8437,33.9074,326.2087,8.3864e-05,1.047e-05,0.0,0 STARLINK-3916,1 52492U 22049AT  22359.15969224  .00001047  00000-0  83864-4 0  9993,2 52492  53.2131 263.8437 0002642  33.9074 326.2087 15.08840573 35841,6917.879,95.438,541.571,537.9159999999998,0.0
52492.0,STARLINK-3916,PAYLOAD,2022-12-25 18:08:25,15.08832974,0.0002241,53.2136,261.1659,33.1324,326.9808,-4.876e-05,-1.064e-05,0.0,0 STARLINK-3916,1 52492U 22049AT  22359.75585491 -.00001064  00000-0 -48760-4 0  9996,2 52492  53.2136 261.1659 0002241  33.1324 326.9808 15.08832974 35932,6917.901999999999,95.438,541.317,538.217,0.0
52492.0,STARLINK-3916,PAYLOAD,2022-12-26 03:40:45,15.08830568,0.0002553,53.2147,259.3835,28.9422,331.1712,-5.6144e-05,-1.182e-05,0.0,0 STARLINK-3916,1 52492U 22049AT  22360.15330394 -.00001182  00000-0 -56144-4 0  9998,2 52492  53.2147 259.3835 0002553  28.9422 331.1712 15.08830568 35991,6917.909000000002,95.438,541.54,538.008,0.0
52492.0,STARLINK-3916,PAYLOAD,2022-12-26 10:02:17,15.08836655,0.0002607,53.2146,258.1942,29.737,330.3769999999999,-5.7963e-05,-1.211e-05,0.0,0 STARLINK-3916,1 52492U 22049AT  22360.41826075 -.00001211  00000-0 -57963-4 0  9996,2 52492  53.2146 258.1942 0002607  29.7370 330.3770 15.08836655 35872,6917.891,95.438,541.559,537.952,0.0
52492.0,STARLINK-3916,PAYLOAD,2022-12-26 17:59:13,15.08835612,0.0002594,53.2147,256.707,28.2145,331.8987,8.1274e-05,1.005e-05,0.0,0 STARLINK-3916,1 52492U 22049AT  22360.74945808  .00001005  00000-0  81274-4 0  9999,2 52492  53.2147 256.7070 0002594  28.2145 331.8987 15.08835612 36080,6917.894,95.438,541.553,537.964,0.0
52492.0,STARLINK-3916,PAYLOAD,2022-12-27 03:31:31,15.08846316,0.0002647,53.2145,254.9229,30.3601,329.7544,0.00016957,2.412e-05,0.0,0 STARLINK-3916,1 52492U 22049AT  22361.14688973  .00002412  00000-0  16957-3 0  9999,2 52492  53.2145 254.9229 0002647  30.3601 329.7544 15.08846316 36149,6917.861,95.437,541.557,537.895,0.0
52492.0,STARLINK-3916,PAYLOAD,2022-12-27 17:49:58,15.08851167,0.0002674,53.2147,252.2464,31.8051,328.3102,0.00031694,4.761e-05,0.0,0 STARLINK-3916,1 52492U 22049AT  22361.74304286  .00004761  00000-0  31694-3 0  9991,2 52492  53.2147 252.2464 0002674  31.8051 328.3102 15.08851167 36075,6917.846,95.437,541.561,537.861,0.0
52492.0,STARLINK-3916,PAYLOAD,2022-12-27 21:00:45,15.08856971,0.0002708,53.2136,251.6519,32.2379,327.8778,0.00039101,5.943e-05,0.0,0 STARLINK-3916,1 52492U 22049AT  22361.87552410  .00005943  00000-0  39101-3 0  9993,2 52492  53.2136 251.6519 0002708  32.2379 327.8778 15.08856971 36254,6917.829000000002,95.436,541.567,537.82,0.0
52492.0,STARLINK-3916,PAYLOAD,2022-12-28 19:16:09,15.08838401,0.0003098,53.2133,247.4886,29.2073,330.9092,-0.00014361,-2.574e-05,0.0,0 STARLINK-3916,1 52492U 22049AT  22362.80289018 -.00002574  00000-0 -14361-3 0  9998,2 52492  53.2133 247.4886 0003098  29.2073 330.9092 15.08838401 36398,6917.885,95.438,541.893,537.607,0.0
52492.0,STARLINK-3916,PAYLOAD,2022-12-29 11:10:01,15.08827419,0.0002681,53.213,244.5148,29.7341,330.3803,-0.00025652,-4.368e-05,0.0,0 STARLINK-3916,1 52492U 22049AT  22363.46529977 -.00004368  00000-0 -25652-3 0  9990,2 52492  53.2130 244.5148 0002681  29.7341 330.3803 15.08827419 36496,6917.919,95.438,541.639,537.929,0.0
52492.0,STARLINK-3916,PAYLOAD,2022-12-30 11:00:49,15.08829595,0.0002641999999999,53.2139,240.0545,28.0628,332.0506,5.5674e-05,5.97e-06,0.0,0 STARLINK-3916,1 52492U 22049AT  22364.45890865  .00000597  00000-0  55674-4 0  9993,2 52492  53.2139 240.0545 0002642  28.0628 332.0506 15.08829595 36489,6917.9119999999975,95.438,541.605,537.9490000000002,0.0
52492.0,STARLINK-3916,PAYLOAD,2022-12-31 01:19:17,15.08842602,0.0002683999999999,53.2137,237.378,29.7019,330.4125,0.00028044,4.178e-05,0.0,0 STARLINK-3916,1 52492U 22049AT  22365.05506016  .00004178  00000-0  28044-3 0  9991,2 52492  53.2137 237.3780 0002684  29.7019 330.4125 15.08842602 36736,6917.871999999999,95.437,541.594,537.881,0.0
52492.0,STARLINK-3916,PAYLOAD,2022-12-31 18:48:31,15.08848494,0.0002713,53.2134,234.1065,31.1321,328.9832,0.00036557,5.536e-05,0.0,0 STARLINK-3916,1 52492U 22049AT  22365.78369626  .00005536  00000-0  36557-3 0  9992,2 52492  53.2134 234.1065 0002713  31.1321 328.9832 15.08848494 36686,6917.854,95.437,541.596,537.8430000000002,0.0
52492.0,STARLINK-3916,PAYLOAD,2022-12-31 21:59:18,15.08854634,0.0002731999999999,53.2127,233.5116,31.2698,328.8456,0.00047744,7.322e-05,0.0,0 STARLINK-3916,1 52492U 22049AT  22365.91618087  .00007322  00000-0  47744-3 0  9990,2 52492  53.2127 233.5116 0002732  31.2698 328.8456 15.08854634 36704,6917.8359999999975,95.437,541.591,537.811,0.0
52492.0,STARLINK-3916,PAYLOAD,2023-01-01 21:50:05,15.08836287,0.0002721,53.2126,229.051,29.1268,330.9876,-0.00012778,-2.322e-05,0.0,0 STARLINK-3916,1 52492U 22049AT  23001.90978643 -.00002322  00000-0 -12778-3 0  9990,2 52492  53.2126 229.0510 0002721  29.1268 330.9876 15.08836287 36858,6917.892,95.438,541.639,537.874,0.0
52492.0,STARLINK-3916,PAYLOAD,2023-01-02 01:00:51,15.0884086,0.0002728999999999,53.2129,228.4558,29.1997,330.9148,-5.0998e-05,-1.1e-05,0.0,0 STARLINK-3916,1 52492U 22049AT  23002.04226540 -.00001100  00000-0 -50998-4 0  9998,2 52492  53.2129 228.4558 0002729  29.1997 330.9148 15.08840860 37038,6917.878000000002,95.438,541.631,537.855,0.0
52492.0,STARLINK-3916,PAYLOAD,2023-01-02 07:22:24,15.088444400000002,0.0002759,53.2132,227.2659,29.2483,330.8664,4.904300000000001e-05,4.92e-06,0.0,0 STARLINK-3916,1 52492U 22049AT  23002.30722407  .00000492  00000-0  49043-4 0  9990,2 52492  53.2132 227.2659 0002759  29.2483 330.8664 15.08844440 36911,6917.8669999999975,95.437,541.64,537.823,0.0
52492.0,STARLINK-3916,PAYLOAD,2023-01-02 21:40:52,15.08841795,0.0002776,53.2132,224.5893,30.9813,329.1342,0.00010515,1.385e-05,0.0,0 STARLINK-3916,1 52492U 22049AT  23002.90338470  .00001385  00000-0  10515-3 0  9992,2 52492  53.2132 224.5893 0002776  30.9813 329.1342 15.08841795 37001,6917.875,95.437,541.66,537.82,0.0
52492.0,STARLINK-3916,PAYLOAD,2023-01-03 05:37:48,15.08837891,0.0002798,53.213,223.1031,29.962,330.1532,1.5202e-05,-4.7e-07,0.0,0 STARLINK-3916,1 52492U 22049AT  23003.23458774 -.00000047  00000-0  15202-4 0  9993,2 52492  53.2130 223.1031 0002798  29.9620 330.1532 15.08837891 37214,6917.887,95.438,541.687,537.816,0.0
52492.0,STARLINK-3916,PAYLOAD,2023-01-03 11:59:21,15.08836414,0.0002738,53.2128,221.9138,29.4126,330.7019,0.00012541,1.708e-05,0.0,0 STARLINK-3916,1 52492U 22049AT  23003.49954944  .00001708  00000-0  12541-3 0  9997,2 52492  53.2128 221.9138 0002738  29.4126 330.7019 15.08836414 37097,6917.891,95.438,541.65,537.862,0.0
52492.0,STARLINK-3916,PAYLOAD,2023-01-04 07:03:58,15.08846423,0.0002748999999999,53.2126,218.3453,30.8769,329.2385,0.00019714,2.851e-05,0.0,0 STARLINK-3916,1 52492U 22049AT  23004.29442530  .00002851  00000-0  19714-3 0  9998,2 52492  53.2126 218.3453 0002749  30.8769 329.2385 15.08846423 37377,6917.861,95.437,541.627,537.8240000000002,0.0
52492.0,STARLINK-3916,PAYLOAD,2023-01-05 08:30:08,15.08841619,0.0002793,53.2124,213.5871,31.9711,328.145,0.00013372,1.84e-05,0.0,0 STARLINK-3916,1 52492U 22049AT  23005.35426696  .00001840  00000-0  13372-3 0  9992,2 52492  53.2124 213.5871 0002793  31.9711 328.1450 15.08841619 37535,6917.875,95.437,541.673,537.808,0.0
